ARABSAT-1DR (TELSTAR 3A)
1 14234U 83077A   24120.63867798 -.00000038  00000+0  00000+0 0  9992
2 14234  14.3382 347.7096 0027330 147.4033 212.7332  0.99520448121218
